MEAN_MOTION;ECCENTRICITY;INCLINATION;RA_OF_ASC_NODE;ARG_OF_PERICENTER;MEAN_ANOMALY;BSTAR;MEAN_MOTION_DOT;MEAN_MOTION_DDOT;TYPE
12.09335616;0.0002367;52.0058;56.4056;7.1719;8.0643;0.00016639;-7.4E-7;0;Globalstar
12.09335655;0.0002392;52.006;53.6734;9.2531;6.199;0.00034517;-5.7E-7;0;Globalstar
12.09335677;0.0002393;52.0061;52.7081;9.9837;91.6717;0.00039982;-5.2E-7;0;Globalstar
12.09335722;0.0002412;52.0063;50.7019;11.4554;22.3817;0.00048512;-4.5E-7;0;Globalstar
12.0933577;0.0002425;52.0064;49.258;12.5366;144.5357;0.00055421;-3.8E-7;0;Globalstar
12.09335814;0.0002433;52.0065;47.9698;13.5011;20.4581;0.00060918;-3.3E-7;0;Globalstar
12.09335889;0.0002442;52.0066;46.7665;14.3418;122.3868;0.00069337;-2.6E-7;0;Globalstar
12.09336004;0.0002479;52.0068;44.2566;16.4888;129.0101;0.00081557;-1.5E-7;0;Globalstar
12.09336199;0.0002521;52.007;41.2832;19.013;147.9824;0.00097668;0;0;Globalstar
12.09336296;0.0002527;52.007;39.7709;20.0844;18.1989;0.0010302;5.0E-8;0;Globalstar
12.09336335;0.0002552;52.0072;38.7919;21.1413;125.1741;0.0010641;8.0E-8;0;Globalstar
12.09336476;0.0002578;52.0073;36.2919;23.1617;116.1971;0.0011234;1.3E-7;0;Globalstar
12.09336613;0.0002584;52.0075;34.288;24.5438;43.5085;0.0011665;1.7E-7;0;Globalstar
12.09336696;0.0002598;52.0076;33.1049;25.5579;113.3139;0.0012093;2.1E-7;0;Globalstar
12.09336909;0.0002627;52.0078;30.3726;27.7496;111.6199;0.0012758;2.7E-7;0;Globalstar
12.09337081;0.000265;52.0079;28.098;29.538;106.6559;0.0012891;2.8E-7;0;Globalstar
12.0933713;0.0002656;52.008;27.6402;29.8243;110.3488;0.001298;2.9E-7;0;Globalstar
12.09337328;0.0002687;52.0082;25.1306;31.9002;116.8042;0.0012876;2.8E-7;0;Globalstar
12.09337499;0.0002704;52.0083;23.1278;33.4552;42.4399;0.001241;2.4E-7;0;Globalstar
12.09337576;0.0002704;52.0083;22.3985;34.1021;115.0405;0.0012673;2.6E-7;0;Globalstar
12.0933772;0.0002726;52.0084;20.3956;35.6565;40.8111;0.0011599;1.6E-7;0;Globalstar
12.09337761;0.000273;52.0084;19.6663;36.325;113.3078;0.0011223;1.3E-7;0;Globalstar
12.09337882;0.0002755;52.0085;17.6633;37.7998;39.5902;0.00098216;0;0;Globalstar
12.09337977;0.0002773;52.0085;16.7065;38.6351;111.7915;0.0009894;1.0E-8;0;Globalstar
12.09338085;0.0002788;52.0086;14.9305;39.956;39.1099;0.00087387;-1.0E-7;0;Globalstar
12.0933822;0.0002801;52.0086;12.2;42.1214;34.5549;0.00070983;-2.4E-7;0;Globalstar
12.09338242;0.0002811;52.0087;11.4948;42.3516;69.6876;0.00066289;-2.9E-7;0;Globalstar
12.0933832;0.0002833;52.0087;9.4682;43.7057;33.269;0.0005242;-4.1E-7;0;Globalstar
12.09338333;0.0002836;52.0087;8.728;44.3;123.0369;0.00048583;-4.5E-7;0;Globalstar
12.09338333;0.0002836;52.0087;8.728;44.3;123.0369;0.00048583;-4.5E-7;0;Globalstar
12.09338387;0.0002855;52.0087;6.7365;45.7509;31.0015;0.0003608;-5.6E-7;0;Globalstar
12.09338415;0.000288;52.0087;4.0036;47.754;30.5823;0.00018525;-7.2E-7;0;Globalstar
12.09338416;0.0002887;52.0087;3.5107;48.0103;89.7541;0.00016718;-7.4E-7;0;Globalstar
12.09338415;0.0002902;52.0086;1.2722;49.6442;28.0298;8.4847E-6;-8.8E-7;0;Globalstar
12.09338138;0.0002892;52.0086;0.5327;50.0112;116.8105;-4.42E-5;-9.3E-7;0;Globalstar
12.09338408;0.0002919;52.0086;358.5406;51.6791;25.594;-0.00014199;-1.02E-6;0;Globalstar
12.09338405;0.0002929;52.0086;357.5839;52.2439;97.825;-0.00017712;-1.05E-6;0;Globalstar
12.09338358;0.0002939;52.0085;355.8086;53.5497;23.9665;-0.0003178;-1.18E-6;0;Globalstar
12.09338289;0.0002965;52.0084;353.076;55.5325;23.1299;-0.00048952;-1.33E-6;0;Globalstar
12.09337912;0.0002965;52.0082;350.3274;57.1678;47.3896;-0.00058175;-1.41E-6;0;Globalstar
12.09337872;0.0002971;52.0081;349.6123;57.6322;97.5937;-0.00062069;-1.45E-6;0;Globalstar
12.09337789;0.0002984;52.008;347.6116;59.054;19.8333;-0.00070254;-1.52E-6;0;Globalstar
12.0933766;0.0002992;52.0077;344.8497;60.8648;65.1901;-0.00078943;-1.6E-6;0;Globalstar
12.09337536;0.0003008;52.0075;342.1469;62.8626;17.1014;-0.00084074;-1.65E-6;0;Globalstar
12.09337512;0.0003012;52.0075;341.6541;63.2275;76.0083;-0.00084366;-1.65E-6;0;Globalstar
12.09337387;0.0003022;52.0073;339.415;64.8571;14.8793;-0.00089414;-1.7E-6;0;Globalstar
12.09337255;0.0003035;52.0071;336.6647;66.714;41.9402;-0.00089588;-1.7E-6;0;Globalstar
12.09337067;0.000304;52.007;333.7306;68.5311;359.5829;-0.00092499;-1.73E-6;0;Globalstar
12.09337026;0.0003046;52.0069;332.9966;69.0816;79.5872;-0.00091806;-1.72E-6;0;Globalstar
12.09336931;0.000305;52.0068;331.2188;70.3315;9.3597;-0.00090429;-1.71E-6;0;Globalstar
12.09336871;0.0003051;52.0067;329.4253;71.308;324.3792;-0.00083842;-1.65E-6;0;Globalstar
12.09336688;0.0003068;52.0064;328.4669;72.0242;39.4389;-0.00091986;-1.72E-6;0;Globalstar
12.09336499;0.0003069;52.0062;325.533;73.9776;356.3548;-0.00081077;-1.62E-6;0;Globalstar
12.0933635;0.0003081;52.0061;322.9907;76.0656;54.0055;-0.00076958;-1.58E-6;0;Globalstar
12.09336512;0.000307;52.0063;322.3464;76.6054;352.1378;-0.00066045;-1.49E-6;0;Globalstar
12.09336386;0.0003075;52.0062;320.0499;78.1264;21.692;-0.00063403;-1.46E-6;0;Globalstar
12.09336368;0.0003077;52.0061;319.3311;78.7424;77.6312;-0.00058947;-1.42E-6;0;Globalstar
12.09336337;0.0003082;52.006;317.0598;80.2516;67.4776;-0.00042627;-1.27E-6;0;Globalstar
12.09336325;0.0003082;52.0059;315.5523;81.4386;289.9318;-0.00031593;-1.17E-6;0;Globalstar
12.09336049;0.0003102;52.0055;314.3276;82.3411;65.6407;-0.00035715;-1.21E-6;0;Globalstar
12.09336043;0.000311;52.0054;311.8531;84.1427;16.4121;-0.00015461;-1.03E-6;0;Globalstar
12.09336007;0.0003106;52.0053;310.2977;84.6973;315.2605;-3.9888E-5;-9.2E-7;0;Globalstar
12.09335978;0.0003112;52.0053;308.8618;85.6214;64.6755;1.0937E-5;-8.8E-7;0;Globalstar
12.09335978;0.0003112;52.0053;308.8618;85.6214;64.6755;1.0937E-5;-8.8E-7;0;Globalstar
12.09335994;0.0003114;52.0052;306.5972;87.5439;43.2365;0.00017219;-7.3E-7;0;Globalstar
12.09336024;0.0003114;52.0051;304.357;89.0778;343.7045;0.0003549;-5.7E-7;0;Globalstar
12.09336033;0.0003115;52.0051;303.657;89.5852;10.0846;0.00042144;-5.1E-7;0;Globalstar
12.09336162;0.0003113;52.005;300.9243;91.9514;8.4162;0.00067463;-2.8E-7;0;Globalstar
12.09336182;0.0003114;52.005;300.446;92.0584;44.6136;0.00071626;-2.4E-7;0;Globalstar
12.09336297;0.0003115;52.005;297.9653;93.6914;5.1769;0.00089878;-7.0E-8;0;Globalstar
12.09336337;0.0003115;52.005;297.4738;94.2831;61.7834;0.00091681;-6.0E-8;0;Globalstar
12.09336477;0.0003114;52.005;295.2429;95.8001;347.6804;0.0010562;7.0E-8;0;Globalstar
12.09336661;0.0003115;52.0051;292.7256;97.7581;5.9735;0.0011517;1.6E-7;0;Globalstar
12.09336676;0.0003114;52.0051;292.2271;98.0715;73.8817;0.0011105;1.2E-7;0;Globalstar
12.09336803;0.0003112;52.0051;289.9945;99.6701;2.3457;0.0011271;1.3E-7;0;Globalstar
12.09336996;0.0003095;52.0055;287.9882;101.0478;293.5722;0.0008948;-8.0E-8;0;Globalstar
12.09337041;0.0003104;52.0054;286.7621;101.4555;71.6112;0.0009321;-4.0E-8;0;Globalstar
12.09337146;0.0003102;52.0054;285.0024;102.648;332.8367;0.00096881;-1.0E-8;0;Globalstar
12.09337154;0.0003116;52.0051;284.5299;102.8016;359.5623;0.001122;1.3E-7;0;Globalstar
12.09337347;0.0003113;52.0052;282.2703;104.4279;330.6702;0.0011043;1.1E-7;0;Globalstar
12.09337389;0.0003113;52.0052;281.7972;104.7204;358.4741;0.0011249;1.3E-7;0;Globalstar
12.09337643;0.0003109;52.0052;279.5374;106.5466;329.8173;0.0011752;1.8E-7;0;Globalstar
12.0933777;0.0003112;52.0052;278.5859;107.134;33.6647;0.0012596;2.5E-7;0;Globalstar
12.09338084;0.0003105;52.0052;276.0766;109.383;38.9622;0.0013913;3.7E-7;0;Globalstar
12.09338116;0.0003103;52.0052;275.854;109.536;30.879;0.0014021;3.8E-7;0;Globalstar
12.09338402;0.0003087;52.0052;273.1156;111.6634;38.6328;0.0014297;4.1E-7;0;Globalstar
12.09338402;0.0003087;52.0052;273.1156;111.6634;38.6328;0.0014297;4.1E-7;0;Globalstar
12.09338604;0.0003071;52.0052;270.3832;113.6216;37.2167;0.0013387;3.3E-7;0;Globalstar
12.09338688;0.0003063;52.0053;269.1019;114.571;262.1784;0.0012786;2.7E-7;0;Globalstar
12.09338808;0.000305;52.0055;265.4033;116.952;348.4172;0.00094379;-3.0E-8;0;Globalstar
12.09338934;0.0003038;52.0056;262.4392;118.851;353.3716;0.00072083;-2.3E-7;0;Globalstar
12.09338951;0.0003037;52.0056;262.187;119.0121;31.8879;0.00070655;-2.5E-7;0;Globalstar
12.09339012;0.0003027;52.0056;260.4121;120.3019;317.1813;0.00054574;-3.9E-7;0;Globalstar
12.09339059;0.000302;52.0056;259.4554;120.856;29.5073;0.00050034;-4.3E-7;0;Globalstar
12.0933912;0.0003009;52.0057;257.458;122.3345;306.5816;0.00031996;-6.0E-7;0;Globalstar
12.09339149;0.0003002;52.0057;256.7233;122.7877;27.9348;0.00027317;-6.4E-7;0;Globalstar
12.09339165;0.0002992;52.0057;254.9484;124.0615;313.2;7.9505E-5;-8.1E-7;0;Globalstar
12.09339165;0.0002984;52.0057;253.992;124.7934;24.7916;-1.6379E-5;-9.0E-7;0;Globalstar
12.09339142;0.0002967;52.0056;251.7544;126.4743;321.3866;-0.00024594;-1.11E-6;0;Globalstar
12.09339122;0.0002959;52.0056;251.2598;126.7978;23.1727;-0.00031754;-1.17E-6;0;Globalstar
12.09339052;0.0002941;52.0055;248.5286;128.7196;20.1899;-0.00054409;-1.38E-6;0;Globalstar
12.09338976;0.000292;52.0054;245.7964;130.7102;18.485;-0.00066256;-1.49E-6;0;Globalstar
12.09338914;0.0002906;52.0054;244.0197;132.0218;306.5878;-0.00071778;-1.54E-6;0;Globalstar
12.09338921;0.0002902;52.0053;243.0651;132.5913;15.4653;-0.0006591;-1.48E-6;0;Globalstar
12.09338812;0.000288;52.0052;240.3328;134.5929;13.7878;-0.00068258;-1.51E-6;0;Globalstar
12.09338606;0.0002853;52.0051;237.6015;136.7344;10.5228;-0.00079329;-1.61E-6;0;Globalstar
12.09338411;0.0002839;52.005;235.6023;138.1746;290.2489;-0.00091226;-1.71E-6;0;Globalstar
12.09338268;0.0002824;52.0052;234.8693;138.9866;8.6177;-0.00094182;-1.74E-6;0;Globalstar
12.09338021;0.0002799;52.005;232.137;141.1341;6.8504;-0.0011138;-1.9E-6;0;Globalstar
12.09337824;0.0002785;52.005;230.1396;142.6379;283.5938;-0.0012087;-1.98E-6;0;Globalstar
12.09337771;0.0002778;52.0049;229.6292;143.0662;10.37;-0.0012356;-2.01E-6;0;Globalstar
12.09337556;0.0002763;52.0048;227.626;144.4945;296.3122;-0.0013176;-2.08E-6;0;Globalstar
12.0933742;0.0002755;52.0048;226.6724;145.3342;3.2981;-0.0013905;-2.15E-6;0;Globalstar
12.09337235;0.0002744;52.0047;224.674;146.847;281.7175;-0.0013772;-2.14E-6;0;Globalstar
